EUTELSAT 21B            
1 38992U 12062B   26005.10574822  .00000129  00000+0  00000+0 0  9994
2 38992   0.0667  13.6444 0003020 274.5373 236.1745  1.00270330 48196
EUTELSAT 70B            
1 39020U 12069A   26005.11545495 -.00000044  00000+0  00000+0 0  9996
2 39020   0.0623  13.2242 0003863 251.2915 312.2541  1.00271756 47879
EUTELSAT 117 WEST A     
1 39122U 13012A   26005.07836137 -.00000013  00000+0  00000+0 0  9995
2 39122   0.0191  44.5002 0003074 246.6992  84.8705  1.00270682 46791
EUTELSAT 7B             
1 39163U 13022A   26005.10280154  .00000047  00000+0  00000+0 0  9993
2 39163   0.0654 357.7369 0005386 328.5930 182.3581  1.00270795 46314
EXPRESS-AT1             
1 39612U 14010A   26005.11259493  .00000079  00000+0  00000+0 0  9998
2 39612   0.0156 332.9806 0000394 349.8350 238.4165  1.00270151 43186
EXPRESS-AT2             
1 39613U 14010B   26004.98649416 -.00000281  00000+0  00000+0 0  9997
2 39613   0.0173 304.0455 0001686 343.3384 312.1803  1.00276889 42864
EUTELSAT 3B             
1 39773U 14030A   26005.10202153  .00000020  00000+0  00000+0 0  9994
2 39773   0.0631  17.1540 0004097 227.4752 259.8849  1.00272422 42436
EUTELSAT 115 WEST B     
1 40425U 15010B   26004.93605384 -.00000025  00000+0  00000+0 0  9998
2 40425   0.0103 152.7250 0000353 284.3980 249.4838  1.00269833 39752
